OBJECT_NAME,OBJECT_ID,EPOCH,MEAN_MOTION,ECCENTRICITY,INCLINATION,RA_OF_ASC_NODE,ARG_OF_PERICENTER,MEAN_ANOMALY,EPHEMERIS_TYPE,CLASSIFICATION_TYPE,NORAD_CAT_ID,ELEMENT_SET_NO,REV_AT_EPOCH,BSTAR,MEAN_MOTION_DOT,MEAN_MOTION_DDOT
CUBEBUG-2 (LO-74),2013-066AA,2026-07-02T03:13:35.170176,14.93886243,.00567259,97.8914,132.1769,339.6462,20.2496,0,U,39440,999,67922,.50992949E-3,.5533E-4,0
FUNCUBE-1 (AO-73),2013-066AE,2026-07-02T04:04:22.469664,15.09671649,.00372868,97.8285,154.9304,150.1022,210.2346,0,U,39444,999,68192,.46384331E-3,.7525E-4,0
UWE-3,2013-066AG,2026-07-01T20:28:32.383776,14.97133222,.00471281,97.8710,139.0279,271.0445,88.5377,0,U,39446,999,67977,.29591236E-3,.3431E-4,0
UNISAT-6,2014-033C,2026-07-02T01:24:55.219680,14.88318256,.00452775,97.7896,335.5103,21.2318,339.0764,0,U,40012,999,64837,.2933617E-3,.2708E-4,0
DUCHIFAT-1,2014-033M,2026-07-02T02:25:15.934368,15.67889029,.00000967,98.0445,244.3920,180.5510,179.5749,0,U,40021,999,65808,.12874894E-2,.143832E-2,0
QB50P1,2014-033R,2026-07-01T23:28:15.894336,15.18486932,.00093476,98.0959,195.1628,164.7109,195.4407,0,U,40025,999,65527,.51493464E-3,.10559E-3,0
LILACSAT-2,2015-049K,2026-07-02T07:09:14.349600,15.51951818,.0007173,97.4622,220.7172,182.2733,177.8487,0,U,40908,999,59809,.31163983E-3,.18652E-3,0
FOX-1A (AO-85),2015-058D,2026-07-02T07:26:15.865440,14.91032716,.01314233,64.7737,231.9854,50.7128,310.5553,0,U,40967,999,11582,.23447508E-3,.2565E-4,0
CAS-2T & KS-1Q,2016-066G,2026-07-02T04:48:45.286560,14.44743358,.03427995,98.3818,258.7650,84.0826,279.9322,0,U,41847,999,50696,.24677813E-3,.1716E-4,0
RADFXSAT (FOX-1B),2017-073E,2026-07-02T03:45:10.344672,15.12917223,.01481852,97.4681,50.0656,277.0157,81.4241,0,U,43017,999,46765,.33553019E-3,.7671E-4,0
DIWATA-2B,2018-084H,2026-07-02T05:47:02.429376,15.00516039,.00131128,98.1199,20.1062,123.5561,236.6916,0,U,43678,999,41847,.16033202E-3,.1958E-4,0
ES'HAIL 2,2018-090A,2026-07-02T05:32:58.151040,1.00272976,.00022543,0.0187,28.4554,107.3914,253.4562,0,U,43700,999,2782,0,.155E-5,0
FOX-1CLIFF (AO-95),2018-099N,2026-07-02T03:37:23.878848,15.27030068,.00069149,97.4375,243.3441,296.3718,63.6811,0,U,43770,999,41550,.50270238E-3,.13279E-3,0
ITASAT,2018-099AE,2026-07-02T02:32:02.706432,15.19241797,.00108863,97.4016,234.3205,303.6087,56.4108,0,U,43786,999,41517,.38326286E-3,.8023E-4,0
JY1SAT (JO-97),2018-099AX,2026-07-02T02:24:14.074560,15.34136694,.00056057,97.4121,245.9901,200.3543,159.7477,0,U,43803,999,41591,.64497673E-3,.21273E-3,0
UWE-4,2018-111E,2026-07-02T06:58:19.966368,15.47074786,.00043974,97.5850,112.3872,256.7047,103.3712,0,U,43880,999,41311,.74011468E-3,.37505E-3,0
TIANYAN 01,2019-093C,2026-07-02T07:47:24.742752,14.86541603,.00145991,97.7532,255.1874,41.9444,318.2888,0,U,44881,999,35366,.32898408E-4,.238E-5,0
RS-44 & BREEZE-KM R/B,2019-096E,2026-07-02T04:08:07.796544,12.79748910,.02185293,82.5226,329.7468,109.2871,253.2006,0,U,44909,999,30426,-.32954252E-4,.5E-7,0
SALSAT,2020-068K,2026-07-02T06:06:00.402912,15.30013367,.00080377,97.8847,187.2381,243.7769,116.2645,0,U,46495,999,31766,.2998701E-3,.8637E-4,0
XW-3 (CAS-9),2021-131B,2026-07-02T06:10:34.577760,14.41371480,.00051968,98.4992,275.5654,62.8008,297.3710,0,U,50466,999,23728,.19593783E-3,.59E-5,0
GREENCUBE (IO-117),2022-080E,2026-06-30T17:23:31.202880,6.42583253,.00089588,70.1437,293.5372,286.6703,73.2973,0,U,53109,999,9293,0,-.3E-7,0
UMKA 1 (RS40S),2023-091G,2026-07-02T07:00:28.632384,15.20995200,.00140786,97.5041,241.9319,71.0489,289.2271,0,U,57172,999,16630,.33371616E-3,.7349E-4,0
CUBESX-HSE 3 (RS42S),2023-091N,2026-07-02T06:25:42.410208,15.31599062,.00110381,97.5083,249.0485,46.9388,313.2775,0,U,57178,999,16673,.51691665E-3,.15737E-3,0
MONITOR-3 (RS58S),2023-091Q,2026-07-02T06:15:04.662432,15.28148382,.00122984,97.5074,246.8191,53.4010,306.8359,0,U,57180,999,16659,.46375966E-3,.12685E-3,0
MONITOR-4 (RS57S),2023-091S,2026-07-02T05:43:42.971520,15.28233604,.00123222,97.5069,246.7692,53.8732,306.3646,0,U,57182,999,16659,.44504061E-3,.12201E-3,0
MONITOR-2 (RS39S),2023-091U,2026-07-02T06:23:44.435328,15.19051360,.00124589,97.5061,241.4524,65.3109,294.9421,0,U,57184,999,16624,.27187261E-3,.564E-4,0
SVYATOBOR 1 (RS60S),2023-091X,2026-07-02T06:21:29.536416,15.26872842,.00100306,97.5080,247.1669,48.1865,312.0229,0,U,57187,999,16661,.41044177E-3,.1078E-3,0
VIZARD-METEO (RS38S),2023-091Z,2026-07-02T06:13:04.099008,15.36509778,.00069659,97.5085,253.0502,29.1957,330.9675,0,U,57189,999,16700,.53868761E-3,.19149E-3,0
POLYTECH-UNIVERSE 3 (RS46S),2023-091AB,2026-07-02T06:59:59.595936,15.19260990,.00169442,97.5037,240.9817,79.2029,281.1112,0,U,57191,999,16624,.29698817E-3,.6216E-4,0
UTMN 2 (RS27S),2023-091AP,2026-07-02T06:39:15.265728,15.32424161,.00081219,97.5080,250.7101,36.6708,323.5087,0,U,57203,999,16685,.48711897E-3,.15199E-3,0
